{"type": "FeatureCollection", "features": [ {"type": "Feature", "properties": {"norad_id": 34141, "name": "COSMOS 2251 DEB", "group": "cosmos-2251-debris", "lat": 41.67386832478115, "lon": -154.5741766489381, "alt_km": 691.0489827277743, "timestamp": "2025-12-06T16:45:43.115428+00:00", "meta": {"OBJECT_NAME": "COSMOS 2251 DEB", "OBJECT_ID": "1993-036LN", "EPOCH": "2025-12-06T02:59:30.264576", "MEAN_MOTION": 14.49126961, "ECCENTRICITY": 0.00478356, "INCLINATION": 74.0124, "RA_OF_ASC_NODE": 41.2886, "ARG_OF_PERICENTER": 129.7573, "MEAN_ANOMALY": 254.3107, "EPHEMERIS_TYPE": 0, "CLASSIFICATION_TYPE": "U", "NORAD_CAT_ID": 34141, "ELEMENT_SET_NO": 999, "REV_AT_EPOCH": 87598, "BSTAR": 0.0025922799, "MEAN_MOTION_DOT": 9.988e-05, "MEAN_MOTION_DDOT": 0}, "tle": {"line1": "1 34141U 93036LN  25340.12465584  .00009988  00000+0  25923-2 0  9999", "line2": "2 34141  74.0124  41.2886 0047835 129.7573 254.3107 14.49126961875985"}}, "geometry": {"type": "Point", "coordinates": [-154.5741766489381, 41.67386832478115]}}, {"type": "Feature", "properties": {"norad_id": 34270, "name": "COSMOS 2251 DEB", "group": "cosmos-2251-debris", "lat": 67.42922635456772, "lon": 94.65362602793532, "alt_km": 636.3788757148322, "timestamp": "2025-12-06T16:45:43.115439+00:00", "meta": {"OBJECT_NAME": "COSMOS 2251 DEB", "OBJECT_ID": "1993-036LQ", "EPOCH": "2025-12-06T06:26:55.466592", "MEAN_MOTION": 14.65097027, "ECCENTRICITY": 0.00477513, "INCLINATION": 74.011, "RA_OF_ASC_NODE": 319.0964, "ARG_OF_PERICENTER": 113.8746, "MEAN_ANOMALY": 246.7436, "EPHEMERIS_TYPE": 0, "CLASSIFICATION_TYPE": "U", "NORAD_CAT_ID": 34270, "ELEMENT_SET_NO": 999, "REV_AT_EPOCH": 89001, "BSTAR": 0.00060270676, "MEAN_MOTION_DOT": 3.261e-05, "MEAN_MOTION_DDOT": 0}, "tle": {"line1": "1 34270U 93036LQ  25340.26869753  .00003261  00000+0  60271-3 0  9997", "line2": "2 34270  74.0110 319.0964 0047751 113.8746 246.7436 14.65097027890018"}}, "geometry": {"type": "Point", "coordinates": [94.65362602793532, 67.42922635456772]}}, {"type": "Feature", "properties": {"norad_id": 34271, "name": "COSMOS 2251 DEB", "group": "cosmos-2251-debris", "lat": -62.94369212101055, "lon": 176.93831304997246, "alt_km": 653.816024049188, "timestamp": "2025-12-06T16:45:43.115449+00:00", "meta": {"OBJECT_NAME": "COSMOS 2251 DEB", "OBJECT_ID": "1993-036LR", "EPOCH": "2025-12-06T03:05:41.750880", "MEAN_MOTION": 14.70540007, "ECCENTRICITY": 0.00194782, "INCLINATION": 74.0209, "RA_OF_ASC_NODE": 212.1693, "ARG_OF_PERICENTER": 267.2161, "MEAN_ANOMALY": 251.3924, "EPHEMERIS_TYPE": 0, "CLASSIFICATION_TYPE": "U", "NORAD_CAT_ID": 34271, "ELEMENT_SET_NO": 999, "REV_AT_EPOCH": 88137, "BSTAR": 0.0028907826, "MEAN_MOTION_DOT": 0.00017617, "MEAN_MOTION_DDOT": 0}, "tle": {"line1": "1 34271U 93036LR  25340.12895545  .00017617  00000+0  28908-2 0  9991", "line2": "2 34271  74.0209 212.1693 0019478 267.2161 251.3924 14.70540007881370"}}, "geometry": {"type": "Point", "coordinates": [176.93831304997246, -62.94369212101055]}}, {"type": "Feature", "properties": {"norad_id": 34273, "name": "COSMOS 2251 DEB", "group": "cosmos-2251-debris", "lat": 21.58811584596875, "lon": -87.52574963117314, "alt_km": 685.0054843281368, "timestamp": "2025-12-06T16:45:43.115459+00:00", "meta": {"OBJECT_NAME": "COSMOS 2251 DEB", "OBJECT_ID": "1993-036LT", "EPOCH": "2025-12-06T07:55:50.143008", "MEAN_MOTION": 14.61127839, "ECCENTRICITY": 0.00144106, "INCLINATION": 74.0364, "RA_OF_ASC_NODE": 99.6809, "ARG_OF_PERICENTER": 225.2974, "MEAN_ANOMALY": 157.4749, "EPHEMERIS_TYPE": 0, "CLASSIFICATION_TYPE": "U", "NORAD_CAT_ID": 34273, "ELEMENT_SET_NO": 999, "REV_AT_EPOCH": 88528, "BSTAR": 0.0019624001, "MEAN_MOTION_DOT": 9.651e-05, "MEAN_MOTION_DDOT": 0}, "tle": {"line1": "1 34273U 93036LT  25340.33044147  .00009651  00000+0  19624-2 0  9994", "line2": "2 34273  74.0364  99.6809 0014410 225.2974 157.4749 14.61127839885287"}}, "geometry": {"type": "Point", "coordinates": [-87.52574963117314, 21.58811584596875]}}, {"type": "Feature", "properties": {"norad_id": 34274, "name": "COSMOS 2251 DEB", "group": "cosmos-2251-debris", "lat": 16.75960430631479, "lon": -104.7486833145316, "alt_km": 672.3979872933241, "timestamp": "2025-12-06T16:45:43.115469+00:00", "meta": {"OBJECT_NAME": "COSMOS 2251 DEB", "OBJECT_ID": "1993-036LU", "EPOCH": "2025-12-06T00:25:53.781312", "MEAN_MOTION": 14.6464687, "ECCENTRICITY": 0.00224049, "INCLINATION": 74.0052, "RA_OF_ASC_NODE": 81.5167, "ARG_OF_PERICENTER": 231.7573, "MEAN_ANOMALY": 304.6417, "EPHEMERIS_TYPE": 0, "CLASSIFICATION_TYPE": "U", "NORAD_CAT_ID": 34274, "ELEMENT_SET_NO": 999, "REV_AT_EPOCH": 88577, "BSTAR": 0.0020142788, "MEAN_MOTION_DOT": 0.00010735, "MEAN_MOTION_DDOT": 0}, "tle": {"line1": "1 34274U 93036LU  25340.01798358  .00010735  00000+0  20143-2 0  9993", "line2": "2 34274  74.0052  81.5167 0022404 231.7573 304.6417 14.64646870885774"}}, "geometry": {"type": "Point", "coordinates": [-104.7486833145316, 16.75960430631479]}}, {"type": "Feature", "properties": {"norad_id": 34276, "name": "COSMOS 2251 DEB", "group": "cosmos-2251-debris", "lat": -72.96007704306813, "lon": -14.006893065050228, "alt_km": 694.1612557444523, "timestamp": "2025-12-06T16:45:43.115479+00:00", "meta": {"OBJECT_NAME": "COSMOS 2251 DEB", "OBJECT_ID": "1993-036LW", "EPOCH": "2025-12-05T18:41:25.365984", "MEAN_MOTION": 14.57148675, "ECCENTRICITY": 0.00227846, "INCLINATION": 74.0234, "RA_OF_ASC_NODE": 98.5538, "ARG_OF_PERICENTER": 245.7566, "MEAN_ANOMALY": 235.877, "EPHEMERIS_TYPE": 0, "CLASSIFICATION_TYPE": "U", "NORAD_CAT_ID": 34276, "ELEMENT_SET_NO": 999, "REV_AT_EPOCH": 88491, "BSTAR": 0.0016706564, "MEAN_MOTION_DOT": 7.541e-05, "MEAN_MOTION_DDOT": 0}, "tle": {"line1": "1 34276U 93036LW  25339.77876581  .00007541  00000+0  16707-2 0  9993", "line2": "2 34276  74.0234  98.5538 0022784 245.7566 235.8770 14.57148675884910"}}, "geometry": {"type": "Point", "coordinates": [-14.006893065050228, -72.96007704306813]}}, {"type": "Feature", "properties": {"norad_id": 34297, "name": "COSMOS 2251 DEB", "group": "cosmos-2251-debris", "lat": 2.8244860836543797, "lon": -63.86511037263385, "alt_km": 759.7896467240435, "timestamp": "2025-12-06T16:45:43.115489+00:00", "meta": {"OBJECT_NAME": "COSMOS 2251 DEB", "OBJECT_ID": "1993-036MT", "EPOCH": "2025-12-06T03:25:47.197632", "MEAN_MOTION": 14.3661939, "ECCENTRICITY": 0.00169858, "INCLINATION": 74.0482, "RA_OF_ASC_NODE": 296.346, "ARG_OF_PERICENTER": 6.3848, "MEAN_ANOMALY": 4.8369, "EPHEMERIS_TYPE": 0, "CLASSIFICATION_TYPE": "U", "NORAD_CAT_ID": 34297, "ELEMENT_SET_NO": 999, "REV_AT_EPOCH": 87970, "BSTAR": 0.00025951912, "MEAN_MOTION_DOT": 7.39e-06, "MEAN_MOTION_DDOT": 0}, "tle": {"line1": "1 34297U 93036MT  25340.14290738  .00000739  00000+0  25952-3 0  9998", "line2": "2 34297  74.0482 296.3460 0016985   6.3848   4.8369 14.36619390879703"}}, "geometry": {"type": "Point", "coordinates": [-63.86511037263385, 2.8244860836543797]}}, {"type": "Feature", "properties": {"norad_id": 34299, "name": "COSMOS 2251 DEB", "group": "cosmos-2251-debris", "lat": -67.99518669069153, "lon": -57.11444029534978, "alt_km": 395.9272803034755, "timestamp": "2025-12-06T16:45:43.115499+00:00", "meta": {"OBJECT_NAME": "COSMOS 2251 DEB", "OBJECT_ID": "1993-036MV", "EPOCH": "2025-12-06T00:10:51.485376", "MEAN_MOTION": 15.62377757, "ECCENTRICITY": 0.00238764, "INCLINATION": 73.9806, "RA_OF_ASC_NODE": 349.7489, "ARG_OF_PERICENTER": 59.1912, "MEAN_ANOMALY": 301.1652, "EPHEMERIS_TYPE": 0, "CLASSIFICATION_TYPE": "U", "NORAD_CAT_ID": 34299, "ELEMENT_SET_NO": 999, "REV_AT_EPOCH": 88905, "BSTAR": 0.0065916463, "MEAN_MOTION_DOT": 0.00638425, "MEAN_MOTION_DDOT": 0}, "tle": {"line1": "1 34299U 93036MV  25340.00754034  .00638425  00000+0  65916-2 0  9991", "line2": "2 34299  73.9806 349.7489 0023876  59.1912 301.1652 15.62377757889057"}}, "geometry": {"type": "Point", "coordinates": [-57.11444029534978, -67.99518669069153]}}, {"type": "Feature", "properties": {"norad_id": 34301, "name": "COSMOS 2251 DEB", "group": "cosmos-2251-debris", "lat": -6.887684843226617, "lon": 176.71983836151045, "alt_km": 623.4986771229778, "timestamp": "2025-12-06T16:45:43.115509+00:00", "meta": {"OBJECT_NAME": "COSMOS 2251 DEB", "OBJECT_ID": "1993-036MX", "EPOCH": "2025-12-06T06:01:23.202336", "MEAN_MOTION": 14.84092221, "ECCENTRICITY": 0.00121648, "INCLINATION": 74.0053, "RA_OF_ASC_NODE": 179.5938, "ARG_OF_PERICENTER": 238.3542, "MEAN_ANOMALY": 244.8229, "EPHEMERIS_TYPE": 0, "CLASSIFICATION_TYPE": "U", "NORAD_CAT_ID": 34301, "ELEMENT_SET_NO": 999, "REV_AT_EPOCH": 88304, "BSTAR": 0.0051743247, "MEAN_MOTION_DOT": 0.00043481, "MEAN_MOTION_DDOT": 0}, "tle": {"line1": "1 34301U 93036MX  25340.25096299  .00043481  00000+0  51743-2 0  9999", "line2": "2 34301  74.0053 179.5938 0012164 238.3542 244.8229 14.84092221883042"}}, "geometry": {"type": "Point", "coordinates": [176.71983836151045, -6.887684843226617]}}, {"type": "Feature", "properties": {"norad_id": 34302, "name": "COSMOS 2251 DEB", "group": "cosmos-2251-debris", "lat": -19.9176138207022, "lon": 128.73734375405837, "alt_km": 710.9124385330288, "timestamp": "2025-12-06T16:45:43.115520+00:00", "meta": {"OBJECT_NAME": "COSMOS 2251 DEB", "OBJECT_ID": "1993-036MY", "EPOCH": "2025-12-06T05:27:43.592832", "MEAN_MOTION": 14.39293148, "ECCENTRICITY": 0.00784047, "INCLINATION": 74.1779, "RA_OF_ASC_NODE": 135.4961, "ARG_OF_PERICENTER": 352.6164, "MEAN_ANOMALY": 68.3652, "EPHEMERIS_TYPE": 0, "CLASSIFICATION_TYPE": "U", "NORAD_CAT_ID": 34302, "ELEMENT_SET_NO": 999, "REV_AT_EPOCH": 87627, "BSTAR": 0.0011662149, "MEAN_MOTION_DOT": 3.729e-05, "MEAN_MOTION_DDOT": 0}, "tle": {"line1": "1 34302U 93036MY  25340.22758788  .00003729  00000+0  11662-2 0  9992", "line2": "2 34302  74.1779 135.4961 0078404 352.6164  68.3652 14.39293148876272"}}, "geometry": {"type": "Point", "coordinates": [128.73734375405837, -19.9176138207022]}}]}